$$SOE
2461302.500000000, A.D. 2026-Sep-19 00:00:00.0000, 3.335254230600807E+09, 6.240503840779053E+09, -2.899772579255567E+08,
2461309.500000000, A.D. 2026-Sep-26 00:00:00.0000, 3.332960662953079E+09, 6.241576781370054E+09, -2.899023183096201E+08,
2461316.500000000, A.D. 2026-Oct-03 00:00:00.0000, 3.330666664159216E+09, 6.242648813706503E+09, -2.898273388720169E+08,
2461323.500000000, A.D. 2026-Oct-10 00:00:00.0000, 3.328372234209082E+09, 6.243719935477889E+09, -2.897523195834398E+08,
2461330.500000000, A.D. 2026-Oct-17 00:00:00.0000, 3.326077373473679E+09, 6.244790144238737E+09, -2.896772604384072E+08,
2461337.500000000, A.D. 2026-Oct-24 00:00:00.0000, 3.323782082643302E+09, 6.245859437381662E+09, -2.896021614574523E+08,
2461344.500000000, A.D. 2026-Oct-31 00:00:00.0000, 3.321486362753909E+09, 6.246927811947685E+09, -2.895270227113538E+08,
2461351.500000000, A.D. 2026-Nov-07 00:00:00.0000, 3.319190215640770E+09, 6.247995264347919E+09, -2.894518443922758E+08,
2461358.500000000, A.D. 2026-Nov-14 00:00:00.0000, 3.316893645020267E+09, 6.249061790884040E+09, -2.893766268775291E+08,
2461365.500000000, A.D. 2026-Nov-21 00:00:00.0000, 3.314596656388095E+09, 6.250127389749444E+09, -2.893013705638206E+08,
2461372.500000000, A.D. 2026-Nov-28 00:00:00.0000, 3.312299254735781E+09, 6.251192061502962E+09, -2.892260756260123E+08,
2461379.500000000, A.D. 2026-Dec-05 00:00:00.0000, 3.310001443705040E+09, 6.252255807358889E+09, -2.891507420857277E+08,
2461386.500000000, A.D. 2026-Dec-12 00:00:00.0000, 3.307703226344901E+09, 6.253318628404244E+09, -2.890753699503944E+08,
2461393.500000000, A.D. 2026-Dec-19 00:00:00.0000, 3.305404605584348E+09, 6.254380525749720E+09, -2.889999592488394E+08,
2461400.500000000, A.D. 2026-Dec-26 00:00:00.0000, 3.303105584278034E+09, 6.255441500746229E+09, -2.889245100211082E+08,
2461407.500000000, A.D. 2027-Jan-02 00:00:00.0000, 3.300806165100640E+09, 6.256501555076040E+09, -2.888490223032296E+08,
2461414.500000000, A.D. 2027-Jan-09 00:00:00.0000, 3.298506350406227E+09, 6.257560690738456E+09, -2.887734961158700E+08,
2461421.500000000, A.D. 2027-Jan-16 00:00:00.0000, 3.296206142086859E+09, 6.258618909938686E+09, -2.886979314593425E+08,
2461428.500000000, A.D. 2027-Jan-23 00:00:00.0000, 3.293905541475076E+09, 6.259676214840031E+09, -2.886223283223839E+08,
2461435.500000000, A.D. 2027-Jan-30 00:00:00.0000, 3.291604549476344E+09, 6.260732607131454E+09, -2.885466867258806E+08,
2461442.500000000, A.D. 2027-Feb-06 00:00:00.0000, 3.289303167354575E+09, 6.261788087750381E+09, -2.884710068127751E+08,
2461449.500000000, A.D. 2027-Feb-13 00:00:00.0000, 3.287001397708840E+09, 6.262842657980277E+09, -2.883952888424125E+08,
2461456.500000000, A.D. 2027-Feb-20 00:00:00.0000, 3.284699243276086E+09, 6.263896321131946E+09, -2.883195329373252E+08,
2461463.500000000, A.D. 2027-Feb-27 00:00:00.0000, 3.282396704954797E+09, 6.264949081594764E+09, -2.882437389733214E+08,
2461470.500000000, A.D. 2027-Mar-06 00:00:00.0000, 3.280093782067149E+09, 6.266000943180457E+09, -2.881679067327621E+08,
2461477.500000000, A.D. 2027-Mar-13 00:00:00.0000, 3.277790473259060E+09, 6.267051908808888E+09, -2.880920360069845E+08,
2461484.500000000, A.D. 2027-Mar-20 00:00:00.0000, 3.275486776908609E+09, 6.268101980701146E+09, -2.880161266126504E+08,
2461491.500000000, A.D. 2027-Mar-27 00:00:00.0000, 3.273182691244779E+09, 6.269151160531059E+09, -2.879401783855696E+08,
2461498.500000000, A.D. 2027-Apr-03 00:00:00.0000, 3.270878214379409E+09, 6.270199449487365E+09, -2.878641911745992E+08,
2461505.500000000, A.D. 2027-Apr-10 00:00:00.0000, 3.268573344313627E+09, 6.271246848269606E+09, -2.877881648394444E+08,
2461512.500000000, A.D. 2027-Apr-17 00:00:00.0000, 3.266268078940802E+09, 6.272293357003445E+09, -2.877120992555883E+08,
2461519.500000000, A.D. 2027-Apr-24 00:00:00.0000, 3.263962416125258E+09, 6.273338975013222E+09, -2.876359943387234E+08,
2461526.500000000, A.D. 2027-May-01 00:00:00.0000, 3.261656354156373E+09, 6.274383700479595E+09, -2.875598501139042E+08,
2461533.500000000, A.D. 2027-May-08 00:00:00.0000, 3.259349892885447E+09, 6.275427530730626E+09, -2.874836667964380E+08,
2461540.500000000, A.D. 2027-May-15 00:00:00.0000, 3.257043034048489E+09, 6.276470464119761E+09, -2.874074446692846E+08,
2461547.500000000, A.D. 2027-May-22 00:00:00.0000, 3.254735779211036E+09, 6.277512500899112E+09, -2.873311838253033E+08,
2461554.500000000, A.D. 2027-May-29 00:00:00.0000, 3.252428128690946E+09, 6.278553641619755E+09, -2.872548842020583E+08,
2461561.500000000, A.D. 2027-Jun-05 00:00:00.0000, 3.250120082344004E+09, 6.279593886190844E+09, -2.871785457343137E+08,
2461568.500000000, A.D. 2027-Jun-12 00:00:00.0000, 3.247811640204799E+09, 6.280633234029261E+09, -2.871021684046891E+08,
2461575.500000000, A.D. 2027-Jun-19 00:00:00.0000, 3.245502802651865E+09, 6.281671684364870E+09, -2.870257522383869E+08,
2461582.500000000, A.D. 2027-Jun-26 00:00:00.0000, 3.243193570376498E+09, 6.282709236440009E+09, -2.869492972887990E+08,
2461589.500000000, A.D. 2027-Jul-03 00:00:00.0000, 3.240883944287376E+09, 6.283745889611530E+09, -2.868728036252058E+08,
2461596.500000000, A.D. 2027-Jul-10 00:00:00.0000, 3.238573925387820E+09, 6.284781643364125E+09, -2.867962713250129E+08,
2461603.500000000, A.D. 2027-Jul-17 00:00:00.0000, 3.236263514662058E+09, 6.285816497196052E+09, -2.867197004767644E+08,
2461610.500000000, A.D. 2027-Jul-24 00:00:00.0000, 3.233952713126904E+09, 6.286850450314481E+09, -2.866430912131903E+08,
2461617.500000000, A.D. 2027-Jul-31 00:00:00.0000, 3.231641522460289E+09, 6.287883501375952E+09, -2.865664437925210E+08,
2461624.500000000, A.D. 2027-Aug-07 00:00:00.0000, 3.229329946005927E+09, 6.288915649423694E+09, -2.864897586153834E+08,
2461631.500000000, A.D. 2027-Aug-14 00:00:00.0000, 3.227017987852982E+09, 6.289946895768465E+09, -2.864130359867964E+08,
2461638.500000000, A.D. 2027-Aug-21 00:00:00.0000, 3.224705650608974E+09, 6.290977243448773E+09, -2.863362759548814E+08,
2461645.500000000, A.D. 2027-Aug-28 00:00:00.0000, 3.222392935296963E+09, 6.292006695473646E+09, -2.862594784426513E+08,
2461652.500000000, A.D. 2027-Sep-04 00:00:00.0000, 3.220079842195890E+09, 6.293035254350302E+09, -2.861826433601902E+08,
2461659.500000000, A.D. 2027-Sep-11 00:00:00.0000, 3.217766371228744E+09, 6.294062922235380E+09, -2.861057706234858E+08,
2461666.500000000, A.D. 2027-Sep-18 00:00:00.0000, 3.215452522031730E+09, 6.295089701059690E+09, -2.860288601455116E+08,
2461673.500000000, A.D. 2027-Sep-25 00:00:00.0000, 3.213138293933338E+09, 6.296115592549047E+09, -2.859519118271482E+08,
2461680.500000000, A.D. 2027-Oct-02 00:00:00.0000, 3.210823685918329E+09, 6.297140598169127E+09, -2.858749255528646E+08,
2461687.500000000, A.D. 2027-Oct-09 00:00:00.0000, 3.208508696599193E+09, 6.298164718990197E+09, -2.857979011938038E+08,
2461694.500000000, A.D. 2027-Oct-16 00:00:00.0000, 3.206193324258328E+09, 6.299187955417301E+09, -2.857208386288164E+08,
2461701.500000000, A.D. 2027-Oct-23 00:00:00.0000, 3.203877567220952E+09, 6.300210306780570E+09, -2.856437378079031E+08,
2461708.500000000, A.D. 2027-Oct-30 00:00:00.0000, 3.201561424933593E+09, 6.301231771396345E+09, -2.855665988427041E+08,
2461715.500000000, A.D. 2027-Nov-06 00:00:00.0000, 3.199244898584845E+09, 6.302252348227563E+09, -2.854894219252548E+08,
2461722.500000000, A.D. 2027-Nov-13 00:00:00.0000, 3.196927989283009E+09, 6.303272038067378E+09, -2.854122070626183E+08,
2461729.500000000, A.D. 2027-Nov-20 00:00:00.0000, 3.194610696692566E+09, 6.304290842060337E+09, -2.853349540722210E+08,
2461736.500000000, A.D. 2027-Nov-27 00:00:00.0000, 3.192293019747055E+09, 6.305308760525705E+09, -2.852576627439559E+08,
2461743.500000000, A.D. 2027-Dec-04 00:00:00.0000, 3.189974957414831E+09, 6.306325792996918E+09, -2.851803329087191E+08,
2461750.500000000, A.D. 2027-Dec-11 00:00:00.0000, 3.187656508967135E+09, 6.307341938513303E+09, -2.851029644416306E+08,
2461757.500000000, A.D. 2027-Dec-18 00:00:00.0000, 3.185337674023448E+09, 6.308357195825037E+09, -2.850255572527790E+08,
2461764.500000000, A.D. 2027-Dec-25 00:00:00.0000, 3.183018452526120E+09, 6.309371563509318E+09, -2.849481112795296E+08,
2461771.500000000, A.D. 2028-Jan-01 00:00:00.0000, 3.180698844685708E+09, 6.310385040012401E+09, -2.848706264828837E+08,
$$EOE